57845,STARLINK-30419,2023,94.24,-1.0,+,53.14,Active,0,LEO,USA,USA,Unknown,Unknown,Unknown,1 57845U 23141F   24235.65326894  .00002144  00000+0  90009-4 0  9991,2 57845  53.1425   9.3521 0001698 111.1803 248.9378 15.28033277 54211,15.28033277,0.0001698,LEO
57846,STARLINK-30420,2023,93.86,-1.0,P,53.16,Active,0,LEO,USA,USA,Unknown,Unknown,Unknown,1 57846U 23141G   24235.68047712  .00003054  00000+0  10191-3 0  9998,2 57846  53.1627  22.9550 0001224  84.5378 275.5764 15.34258645 53987,15.34258645,0.0001224,LEO
57847,STARLINK-30416,2023,93.86,-1.0,+,53.16,Active,0,LEO,USA,USA,Unknown,Unknown,Unknown,1 57847U 23141H   24235.68549877  .00006841  00000+0  21456-3 0  9991,2 57847  53.1610  25.4431 0001105  47.6724 312.4372 15.34228689 53957,15.34228689,0.0001105,LEO
57848,STARLINK-30426,2023,93.86,-1.0,+,53.16,Active,0,LEO,USA,USA,Unknown,Unknown,Unknown,1 57848U 23141J   24235.71808854 -.00001417  00000+0 -31031-4 0  9996,2 57848  53.1614  25.4420 0000973  72.6788 287.4321 15.34218661 53954,15.34218661,9.73e-05,LEO
57849,STARLINK-30430,2023,93.86,-1.0,+,53.16,Active,0,LEO,USA,USA,Unknown,Unknown,Unknown,1 57849U 23141K   24235.62069250  .00001759  00000+0  63502-4 0  9991,2 57849  53.1627  25.7873 0001202 104.7628 255.3508 15.34223221 53948,15.34223221,0.0001202,LEO
57850,STARLINK-30425,2023,93.86,-1.0,+,53.16,Active,0,LEO,USA,USA,Unknown,Unknown,Unknown,1 57850U 23141L   24235.71343109  .00007206  00000+0  22539-3 0  9998,2 57850  53.1611  25.4140 0001125  59.3686 300.7428 15.34228583 53953,15.34228583,0.0001125,LEO
57851,STARLINK-30405,2023,93.86,-1.0,+,53.16,Active,0,LEO,USA,USA,Unknown,Unknown,Unknown,1 57851U 23141M   24235.66220242 -.00005104  00000+0 -14091-3 0  9996,2 57851  53.1621  25.2837 0001151  84.2492 275.8642 15.34204897 53959,15.34204897,0.0001151,LEO
57852,STARLINK-30431,2023,93.86,-1.0,+,53.16,Active,0,LEO,USA,USA,Unknown,Unknown,Unknown,1 57852U 23141N   24235.73220527 -.00000268  00000+0  32077-5 0  9992,2 57852  53.1626  26.4790 0001281  76.1406 283.9739 15.34211459 53954,15.34211459,0.0001281,LEO
57853,STARLINK-30404,2023,93.86,-1.0,+,53.16,Active,0,LEO,USA,USA,Unknown,Unknown,Unknown,1 57853U 23141P   24235.73253094 -.00001888  00000+0 -45036-4 0  9996,2 57853  53.1611  26.4797 0001231  83.0814 277.0329 15.34212854 53949,15.34212854,0.0001231,LEO
57854,STARLINK-30412,2023,93.86,-1.0,+,53.16,Active,0,LEO,USA,USA,Unknown,Unknown,Unknown,1 57854U 23141Q   24235.72287926 -.00000991  00000+0 -18347-4 0  9996,2 57854  53.1603  26.4232 0000924  75.2905 284.8200 15.34213142 53942,15.34213142,9.24e-05,LEO
57855,STARLINK-30392,2023,93.86,-1.0,+,53.16,Active,0,LEO,USA,USA,Unknown,Unknown,Unknown,1 57855U 23141R   24235.72321160 -.00000829  00000+0 -13502-4 0  9994,2 57855  53.1614  26.4217 0000929  88.8450 271.2659 15.34218424 53966,15.34218424,9.29e-05,LEO
57856,STARLINK-30291,2023,93.86,-1.0,+,53.16,Active,0,LEO,USA,USA,Unknown,Unknown,Unknown,1 57856U 23141S   24235.70889576  .00000205  00000+0  17278-4 0  9993,2 57856  53.1617  26.3385 0000656  58.6287 301.4780 15.34221334 53948,15.34221334,6.56e-05,LEO
57857,STARLINK-30424,2023,93.86,-1.0,+,53.16,Active,0,LEO,USA,USA,Unknown,Unknown,Unknown,1 57857U 23141T   24235.66404174 -.00001194  00000+0 -24380-4 0  9998,2 57857  53.1624  14.2872 0001455  86.1225 273.9944 15.34217342 54119,15.34217342,0.0001455,LEO
57858,STARLINK-30290,2023,93.86,-1.0,+,53.16,Active,0,LEO,USA,USA,Unknown,Unknown,Unknown,1 57858U 23141U   24235.71389332  .00002571  00000+0  87689-4 0  9992,2 57858  53.1618  26.3651 0001157  98.4874 261.6259 15.34214011 53940,15.34214011,0.0001157,LEO
57859,STARLINK-30414,2023,93.86,-1.0,+,53.16,Active,0,LEO,USA,USA,Unknown,Unknown,Unknown,1 57859U 23141V   24235.71854922  .00001842  00000+0  65988-4 0  9993,2 57859  53.1605  26.3937 0001205  70.7658 289.3475 15.34219983 53941,15.34219983,0.0001205,LEO
57860,STARLINK-30272,2023,93.86,-1.0,+,53.16,Active,0,LEO,USA,USA,Unknown,Unknown,Unknown,1 57860U 23141W   24235.57394281  .00006155  00000+0  19407-3 0  9992,2 57860  53.1613  26.9147 0000917 111.2173 248.8928 15.34244742 53925,15.34244742,9.17e-05,LEO
57861,VICTUS NOX,2023,92.68,-1.0,+,97.31,Active,0,LEO,USA,USA,Unknown,Unknown,Unknown,1 57861U 23142A   24235.62691191  .00062251  00000+0  96792-3 0  9991,2 57861  97.3107  67.9203 0007022 281.4165  78.6300 15.53702569 52724,15.53702569,0.0007022,LEO
57864,STARLINK-30432,2023,95.84,-1.0,+,43.0,Active,0,LEO,USA,USA,Unknown,Unknown,Unknown,1 57864U 23144A   24235.07995153 -.00001977  00000+0 -13133-3 0  9998,2 57864  43.0023 115.8391 0001494 258.8024 101.2651 15.02538722 52636,15.02538722,0.0001494,LEO
57865,STARLINK-30427,2023,95.84,-1.0,+,43.0,Active,0,LEO,USA,USA,Unknown,Unknown,Unknown,1 57865U 23144B   24235.01014296  .00000894  00000+0  81216-4 0  9996,2 57865  43.0017 116.1739 0000963 329.0860  30.9926 15.02540532 52623,15.02540532,9.63e-05,LEO
57866,STARLINK-30393,2023,95.84,-1.0,+,43.0,Active,0,LEO,USA,USA,Unknown,Unknown,Unknown,1 57866U 23144C   24235.35240945  .00000372  00000+0  42631-4 0  9995,2 57866  43.0015 113.5860 0000835 301.4008  58.6753 15.02536586 52689,15.02536586,8.35e-05,LEO
57867,STARLINK-30439,2023,95.84,-1.0,+,43.01,Active,0,LEO,USA,USA,Unknown,Unknown,Unknown,1 57867U 23144D   24235.00680955  .00000753  00000+0  70825-4 0  9996,2 57867  43.0091 116.1389 0001948 258.8283 101.2341 15.02537448 52670,15.02537448,0.0001948,LEO
57868,STARLINK-30442,2023,95.84,-1.0,+,43.01,Active,0,LEO,USA,USA,Unknown,Unknown,Unknown,1 57868U 23144E   24235.06996104 -.00002323  00000+0 -15690-3 0  9994,2 57868  43.0073 115.7184 0002049 251.6644 108.3975 15.02535651 52635,15.02535651,0.0002049,LEO
57869,STARLINK-30441,2023,95.84,-1.0,+,43.0,Active,0,LEO,USA,USA,Unknown,Unknown,Unknown,1 57869U 23144F   24235.68157884  .00006940  00000+0  52827-3 0  9997,2 57869  42.9998 112.5686 0000956 282.5571  77.5164 15.02538795 52728,15.02538795,9.56e-05,LEO
57870,STARLINK-30460,2023,95.84,-1.0,+,43.0,Active,0,LEO,USA,USA,Unknown,Unknown,Unknown,1 57870U 23144G   24235.73141314  .00000930  00000+0  83907-4 0  9993,2 57870  43.0025 112.1259 0001150 277.6051  82.4661 15.02530137 52774,15.02530137,0.000115,LEO
57871,STARLINK-30444,2023,95.84,-1.0,+,43.0,Active,0,LEO,USA,USA,Unknown,Unknown,Unknown,1 57871U 23144H   24235.72475021  .00000732  00000+0  69219-4 0  9998,2 57871  43.0012 112.0731 0001146 266.3344  93.7368 15.02535073 52458,15.02535073,0.0001146,LEO
57872,STARLINK-30446,2023,95.84,-1.0,+,43.0,Active,0,LEO,USA,USA,Unknown,Unknown,Unknown,1 57872U 23144J   24235.35269046  .00001152  00000+0  10035-3 0  9994,2 57872  43.0021 100.8068 0001880 264.4807  95.5821 15.02536415 52562,15.02536415,0.000188,LEO
57873,STARLINK-30445,2023,95.84,-1.0,+,43.0,Active,0,LEO,USA,USA,Unknown,Unknown,Unknown,1 57873U 23144K   24235.72808504 -.00001775  00000+0 -11632-3 0  9991,2 57873  43.0028 112.1095 0001413 277.9947  82.0735 15.02543990 52721,15.0254399,0.0001413,LEO
57874,STARLINK-30447,2023,95.84,-1.0,+,43.0,Active,0,LEO,USA,USA,Unknown,Unknown,Unknown,1 57874U 23144L   24235.29653355  .00003610  00000+0  28212-3 0  9996,2 57874  43.0001  88.7514 0001149 265.0502  95.0209 15.02542172 53001,15.02542172,0.0001149,LEO
57875,STARLINK-30434,2023,95.84,-1.0,+,43.0,Active,0,LEO,USA,USA,Unknown,Unknown,Unknown,1 57875U 23144M   24235.71809016 -.00001634  00000+0 -10586-3 0  9992,2 57875  43.0026 112.0284 0001548 274.1306  85.9359 15.02548438 52789,15.02548438,0.0001548,LEO
57876,STARLINK-30429,2023,95.84,-1.0,+,43.0,Active,0,LEO,USA,USA,Unknown,Unknown,Unknown,1 57876U 23144N   24235.38237879  .00004505  00000+0  34831-3 0  9995,2 57876  43.0019 113.8091 0000905 279.6717  80.4023 15.02536373 52726,15.02536373,9.05e-05,LEO
