OBJECT_NAME,OBJECT_ID,EPOCH,MEAN_MOTION,ECCENTRICITY,INCLINATION,RA_OF_ASC_NODE,ARG_OF_PERICENTER,MEAN_ANOMALY,EPHEMERIS_TYPE,CLASSIFICATION_TYPE,NORAD_CAT_ID,ELEMENT_SET_NO,REV_AT_EPOCH,BSTAR,MEAN_MOTION_DOT,MEAN_MOTION_DDOT
STARLINK-30419,2023-141F,2024-08-22T15:40:42.436416,15.28033277,.0001698,53.1425,9.3521,111.1803,248.9378,0,U,57845,999,5421,.90009E-4,.2144E-4,0
STARLINK-30420,2023-141G,2024-08-22T16:19:53.223168,15.34258645,.0001224,53.1627,22.9550,84.5378,275.5764,0,U,57846,999,5398,.10191E-3,.3054E-4,0
STARLINK-30416,2023-141H,2024-08-22T16:27:07.093728,15.34228689,.0001105,53.1610,25.4431,47.6724,312.4372,0,U,57847,999,5395,.21456E-3,.6841E-4,0
STARLINK-30426,2023-141J,2024-08-22T17:14:02.849856,15.34218661,.0000973,53.1614,25.4420,72.6788,287.4321,0,U,57848,999,5395,-.31031E-4,-.1417E-4,0
STARLINK-30430,2023-141K,2024-08-22T14:53:47.832000,15.34223221,.0001202,53.1627,25.7873,104.7628,255.3508,0,U,57849,999,5394,.63502E-4,.1759E-4,0
STARLINK-30425,2023-141L,2024-08-22T17:07:20.446176,15.34228583,.0001125,53.1611,25.4140,59.3686,300.7428,0,U,57850,999,5395,.22539E-3,.7206E-4,0
STARLINK-30405,2023-141M,2024-08-22T15:53:34.289088,15.34204897,.0001151,53.1621,25.2837,84.2492,275.8642,0,U,57851,999,5395,-.14091E-3,-.5104E-4,0
STARLINK-30431,2023-141N,2024-08-22T17:34:22.535328,15.34211459,.0001281,53.1626,26.4790,76.1406,283.9739,0,U,57852,999,5395,.32077E-5,-.268E-5,0
STARLINK-30404,2023-141P,2024-08-22T17:34:50.673216,15.34212854,.0001231,53.1611,26.4797,83.0814,277.0329,0,U,57853,999,5394,-.45036E-4,-.1888E-4,0
STARLINK-30412,2023-141Q,2024-08-22T17:20:56.768064,15.34213142,.0000924,53.1603,26.4232,75.2905,284.8200,0,U,57854,999,5394,-.18347E-4,-.991E-5,0
STARLINK-30392,2023-141R,2024-08-22T17:21:25.482240,15.34218424,.0000929,53.1614,26.4217,88.8450,271.2659,0,U,57855,999,5396,-.13502E-4,-.829E-5,0
STARLINK-30291,2023-141S,2024-08-22T17:00:48.593664,15.34221334,.0000656,53.1617,26.3385,58.6287,301.4780,0,U,57856,999,5394,.17278E-4,.205E-5,0
STARLINK-30424,2023-141T,2024-08-22T15:56:13.206336,15.34217342,.0001455,53.1624,14.2872,86.1225,273.9944,0,U,57857,999,5411,-.2438E-4,-.1194E-4,0
STARLINK-30290,2023-141U,2024-08-22T17:08:00.382848,15.34214011,.0001157,53.1618,26.3651,98.4874,261.6259,0,U,57858,999,5394,.87689E-4,.2571E-4,0
STARLINK-30414,2023-141V,2024-08-22T17:14:42.652608,15.34219983,.0001205,53.1605,26.3937,70.7658,289.3475,0,U,57859,999,5394,.65988E-4,.1842E-4,0
STARLINK-30272,2023-141W,2024-08-22T13:46:28.658784,15.34244742,.0000917,53.1613,26.9147,111.2173,248.8928,0,U,57860,999,5392,.19407E-3,.6155E-4,0
VICTUS NOX,2023-142A,2024-08-22T15:02:45.189024,15.53702569,.0007022,97.3107,67.9203,281.4165,78.6300,0,U,57861,999,5272,.96792E-3,.62251E-3,0
STARLINK-30432,2023-144A,2024-08-22T01:55:07.812192,15.02538722,.0001494,43.0023,115.8391,258.8024,101.2651,0,U,57864,999,5263,-.13133E-3,-.1977E-4,0
STARLINK-30427,2023-144B,2024-08-22T00:14:36.351744,15.02540532,.0000963,43.0017,116.1739,329.0860,30.9926,0,U,57865,999,5262,.81216E-4,.894E-5,0
STARLINK-30393,2023-144C,2024-08-22T08:27:28.176480,15.02536586,.0000835,43.0015,113.5860,301.4008,58.6753,0,U,57866,999,5268,.42631E-4,.372E-5,0
STARLINK-30439,2023-144D,2024-08-22T00:09:48.345120,15.02537448,.0001948,43.0091,116.1389,258.8283,101.2341,0,U,57867,999,5267,.70825E-4,.753E-5,0
STARLINK-30442,2023-144E,2024-08-22T01:40:44.633856,15.02535651,.0002049,43.0073,115.7184,251.6644,108.3975,0,U,57868,999,5263,-.1569E-3,-.2323E-4,0
STARLINK-30441,2023-144F,2024-08-22T16:21:28.411776,15.02538795,.0000956,42.9998,112.5686,282.5571,77.5164,0,U,57869,999,5272,.52827E-3,.694E-4,0
STARLINK-30460,2023-144G,2024-08-22T17:33:14.095296,15.02530137,.000115,43.0025,112.1259,277.6051,82.4661,0,U,57870,999,5277,.83907E-4,.93E-5,0
STARLINK-30444,2023-144H,2024-08-22T17:23:38.418144,15.02535073,.0001146,43.0012,112.0731,266.3344,93.7368,0,U,57871,999,5245,.69219E-4,.732E-5,0
STARLINK-30446,2023-144J,2024-08-22T08:27:52.455744,15.02536415,.000188,43.0021,100.8068,264.4807,95.5821,0,U,57872,999,5256,.10035E-3,.1152E-4,0
STARLINK-30445,2023-144K,2024-08-22T17:28:26.547456,15.02543990,.0001413,43.0028,112.1095,277.9947,82.0735,0,U,57873,999,5272,-.11632E-3,-.1775E-4,0
STARLINK-30447,2023-144L,2024-08-22T07:07:00.498720,15.02542172,.0001149,43.0001,88.7514,265.0502,95.0209,0,U,57874,999,5300,.28212E-3,.361E-4,0
STARLINK-30434,2023-144M,2024-08-22T17:14:02.989824,15.02548438,.0001548,43.0026,112.0284,274.1306,85.9359,0,U,57875,999,5278,-.10586E-3,-.1634E-4,0
STARLINK-30429,2023-144N,2024-08-22T09:10:37.527456,15.02536373,.0000905,43.0019,113.8091,279.6717,80.4023,0,U,57876,999,5273,.34831E-3,.4505E-4,0
